OBJECT_NAME,OBJECT_ID,EPOCH,MEAN_MOTION,ECCENTRICITY,INCLINATION,RA_OF_ASC_NODE,ARG_OF_PERICENTER,MEAN_ANOMALY,EPHEMERIS_TYPE,CLASSIFICATION_TYPE,NORAD_CAT_ID,ELEMENT_SET_NO,REV_AT_EPOCH,BSTAR,MEAN_MOTION_DOT,MEAN_MOTION_DDOT
LEMUR-2-JPGSQUARED,2019-089D,2024-01-20T12:57:40.843584,15.25322768,.0007589,36.9627,193.9860,6.6499,353.4351,0,U,44855,999,22610,.10263E-2,.26485E-3,0
LEMUR-2-HIMOMANDDAD,2019-089J,2024-01-20T13:56:29.465376,15.27289327,.0008865,36.9609,194.2941,12.2560,347.8405,0,U,44860,999,22598,.15622E-2,.42959E-3,0
LEMUR-2-PAPPY,2019-089K,2024-01-20T13:59:47.916672,15.22491451,.0008739,36.9576,201.7008,354.9834,5.0826,0,U,44861,999,22596,.15142E-2,.36002E-3,0
LEMUR-2-THEODOSIA,2019-089M,2024-01-20T12:55:13.108224,15.26121324,.0006452,36.9617,192.9388,4.1911,355.8893,0,U,44863,999,22596,.10447E-2,.27619E-3,0
LEMUR-2-OSCARLATOR,2020-061AD,2024-01-20T05:12:22.986144,16.01636977,.0002251,97.3704,109.4939,282.1809,77.9218,0,U,46299,999,18805,.24929E-2,.1364749E-1,.10512E-2
LEMUR-2-SLICERS,2020-068Q,2024-01-20T10:28:05.040480,15.29284855,.0010348,97.7767,341.6763,96.9205,263.3212,0,U,46500,999,18219,.15228E-2,.43452E-3,0
LEMUR-2-DAYWZAGOODDAY,2020-068R,2024-01-20T11:01:28.184736,15.27434944,.0010482,97.7806,341.8229,94.6517,265.5918,0,U,46501,999,18218,.11692E-2,.31465E-3,0
LEMUR-2-NICHOL,2020-068T,2024-01-20T10:48:32.127840,15.25601568,.0010522,97.7811,340.8474,100.5118,259.7305,0,U,46503,999,18213,.11198E-2,.28499E-3,0
LEMUR-2-OZARAK,2020-081D,2024-01-20T05:40:32.329056,15.21792140,.0009413,36.8984,329.4820,234.1572,125.8302,0,U,46908,999,17609,.18941E-2,.44197E-3,0
LEMUR-2-JINDRA,2020-081E,2024-01-20T03:27:31.593024,15.25658915,.0009253,36.8977,319.4334,254.7724,105.2002,0,U,46909,999,17620,.22049E-2,.57872E-3,0
LEMUR-2-WALLACE,2020-081F,2024-01-20T05:34:35.360544,15.24752065,.0010461,36.8981,322.9282,241.2947,118.6751,0,U,46910,999,17616,.21486E-2,.54867E-3,0
LEMUR-2-JEREMIAH,2020-081G,2024-01-20T05:54:27.498240,15.21262159,.0013559,36.9043,327.8601,232.1936,127.7584,0,U,46911,999,17612,.20441E-2,.47043E-3,0
LEMUR-2-NEVA,2021-006AP,2024-01-20T14:12:37.700064,16.40244768,.0011169,97.3493,92.2060,278.0497,81.9535,0,U,47450,999,16655,.84823E-3,.11784507E+0,.25057E-5
LEMUR-2-NOOBNOOB,2021-006DY,2024-01-20T03:20:44.036448,15.53549593,.0005258,97.3600,87.4012,10.2192,349.9168,0,U,47538,999,16619,.1322E-2,.84791E-3,0
LEMUR-2-AMANDA-SVANTE,2021-034B,2024-01-20T04:19:07.339584,14.95591666,.0002068,97.6821,88.3305,321.8008,38.3066,0,U,48269,999,14820,.89968E-3,.9939E-4,0
LEMUR-2-ANNABANANA,2021-059AW,2024-01-20T09:33:24.818688,15.57927649,.0004398,97.5838,175.3935,197.2017,162.9090,0,U,48923,999,14320,.77804E-3,.58363E-3,0
LEMUR-2-AC-CUBED,2021-059BA,2024-01-20T08:59:08.387232,15.76703399,.0004008,97.6013,176.8772,244.5250,115.5600,0,U,48927,999,14323,.17793E-2,.293352E-2,0
LEMUR-2-ROHOVITHSA,2022-002BE,2024-01-20T04:30:17.566848,15.38489731,.0005238,97.4141,92.4537,192.8682,167.2430,0,U,51036,999,11193,.12289E-2,.46835E-3,0
