44855,LEMUR-2-JPGSQUARED,2019,94.41,10.0,+,36.96,Active,1,LEO,India,USA,Commercial,Earth Observation,PSLV,1 44855U 19089D   24020.54005606  .00026485  00000+0  10263-2 0  9995,2 44855  36.9627 193.9860 0007589   6.6499 353.4351 15.25322768226106,15.25322768,0.0007589,LEO
44860,LEMUR-2-HIMOMANDDAD,2019,94.29,10.0,+,36.96,Active,1,LEO,India,USA,Commercial,Earth Observation,PSLV,1 44860U 19089J   24020.58089659  .00042959  00000+0  15622-2 0  9993,2 44860  36.9609 194.2941 0008865  12.2560 347.8405 15.27289327225983,15.27289327,0.0008865,LEO
44861,LEMUR-2-PAPPY,2019,94.59,10.0,+,36.96,Active,1,LEO,India,USA,Commercial,Earth Observation,PSLV,1 44861U 19089K   24020.58319348  .00036002  00000+0  15142-2 0  9994,2 44861  36.9576 201.7008 0008739 354.9834   5.0826 15.22491451225961,15.22491451,0.0008739,LEO
44863,LEMUR-2-THEODOSIA,2019,94.36,10.0,+,36.96,Active,1,LEO,India,USA,Commercial,Earth Observation,PSLV,1 44863U 19089M   24020.53834616  .00027619  00000+0  10447-2 0  9998,2 44863  36.9617 192.9388 0006452   4.1911 355.8893 15.26121324225964,15.26121324,0.0006452,LEO
46299,LEMUR-2-OSCARLATOR,2020,90.06,10.0,+,97.37,Active,1,LEO,French Guiana,USA,Commercial,Earth Observation,Vega,1 46299U 20061AD  24020.21693271  .01364749  10512-2  24929-2 0  9991,2 46299  97.3704 109.4939 0002251 282.1809  77.9218 16.01636977188059,16.01636977,0.0002251,LEO
46500,LEMUR-2-SLICERS,2020,94.17,10.0,+,97.78,Active,1,LEO,Russia,USA,Commercial,Earth Observation,Soyuz,1 46500U 20068Q   24020.43616945  .00043452  00000+0  15228-2 0  9994,2 46500  97.7767 341.6763 0010348  96.9205 263.3212 15.29284855182196,15.29284855,0.0010348,LEO
46501,LEMUR-2-DAYWZAGOODDAY,2020,94.28,10.0,+,97.78,Active,1,LEO,Russia,USA,Commercial,Earth Observation,Soyuz,1 46501U 20068R   24020.45935399  .00031465  00000+0  11692-2 0  9996,2 46501  97.7806 341.8229 0010482  94.6517 265.5918 15.27434944182180,15.27434944,0.0010482,LEO
46503,LEMUR-2-NICHOL,2020,94.39,10.0,+,97.78,Active,1,LEO,Russia,USA,Commercial,Earth Observation,Soyuz,1 46503U 20068T   24020.45037185  .00028499  00000+0  11198-2 0  9998,2 46503  97.7811 340.8474 0010522 100.5118 259.7305 15.25601568182134,15.25601568,0.0010522,LEO
46908,LEMUR-2-OZARAK,2020,94.63,10.0,+,36.9,Active,1,LEO,India,USA,Commercial,Earth Observation,PSLV,1 46908U 20081D   24020.23648529  .00044197  00000+0  18941-2 0  9994,2 46908  36.8984 329.4820 0009413 234.1572 125.8302 15.21792140176092,15.2179214,0.0009413,LEO
46909,LEMUR-2-JINDRA,2020,94.39,10.0,+,36.9,Active,1,LEO,India,USA,Commercial,Earth Observation,PSLV,1 46909U 20081E   24020.14411566  .00057872  00000+0  22049-2 0  9992,2 46909  36.8977 319.4334 0009253 254.7724 105.2002 15.25658915176200,15.25658915,0.0009253,LEO
46910,LEMUR-2-WALLACE,2020,94.45,10.0,+,36.9,Active,1,LEO,India,USA,Commercial,Earth Observation,PSLV,1 46910U 20081F   24020.23235371  .00054867  00000+0  21486-2 0  9997,2 46910  36.8981 322.9282 0010461 241.2947 118.6751 15.24752065176163,15.24752065,0.0010461,LEO
46911,LEMUR-2-JEREMIAH,2020,94.66,10.0,+,36.9,Active,1,LEO,India,USA,Commercial,Earth Observation,PSLV,1 46911U 20081G   24020.24615160  .00047043  00000+0  20441-2 0  9995,2 46911  36.9043 327.8601 0013559 232.1936 127.7584 15.21262159176129,15.21262159,0.0013559,LEO
47450,LEMUR-2-NEVA,2021,88.98,10.0,+,97.36,Active,1,LEO,USA,USA,Commercial,Earth Observation,Falcon,1 47450U 21006AP  24020.59210301  .11784507  25057-5  84823-3 0  9993,2 47450  97.3493  92.2060 0011169 278.0497  81.9535 16.40244768166557,16.40244768,0.0011169,LEO
47538,LEMUR-2-NOOBNOOB,2021,92.7,10.0,+,97.36,Active,1,LEO,USA,USA,Commercial,Earth Observation,Falcon,1 47538U 21006DY  24020.13939857  .00084791  00000+0  13220-2 0  9997,2 47538  97.3600  87.4012 0005258  10.2192 349.9168 15.53549593166193,15.53549593,0.0005258,LEO
48269,LEMUR-2-AMANDA-SVANTE,2021,96.28,10.0,+,97.68,Active,1,LEO,French Guiana,USA,Commercial,Earth Observation,Vega,1 48269U 21034B   24020.17994606  .00009939  00000+0  89968-3 0  9991,2 48269  97.6821  88.3305 0002068 321.8008  38.3066 14.95591666148202,14.95591666,0.0002068,LEO
48923,LEMUR-2-ANNABANANA,2021,92.44,10.0,+,97.58,Active,1,LEO,USA,USA,Commercial,Earth Observation,Falcon,1 48923U 21059AW  24020.39820392  .00058363  00000+0  77804-3 0  9990,2 48923  97.5838 175.3935 0004398 197.2017 162.9090 15.57927649143204,15.57927649,0.0004398,LEO
48927,LEMUR-2-AC-CUBED,2021,91.36,10.0,+,97.6,Active,1,LEO,USA,USA,Commercial,Earth Observation,Falcon,1 48927U 21059BA  24020.37440263  .00293352  00000+0  17793-2 0  9996,2 48927  97.6013 176.8772 0004008 244.5250 115.5600 15.76703399143231,15.76703399,0.0004008,LEO
51036,LEMUR-2-ROHOVITHSA,2022,93.61,10.0,+,97.41,Active,1,LEO,USA,USA,Commercial,Earth Observation,Falcon,1 51036U 22002BE  24020.18770332  .00046835  00000+0  12289-2 0  9999,2 51036  97.4141  92.4537 0005238 192.8682 167.2430 15.38489731111934,15.38489731,0.0005238,LEO
